{
"type": "FeatureCollection",
"name": "o",
"crs": { "type": "name", "properties": { "name": "urn:ogc:def:crs:OGC:1.3:CRS84" } },
"features": [
{"type":"Feature","properties":{},"geometry":{"type":"LineString","coordinates":[[-73.669585861397394,41.984927252681842],[-73.669585861397394,41.984927252681842],[-73.671617807333774,41.955618988151414],[-73.671617807333774,41.955618988151414],[-73.676494477581087,41.928111347247921],[-73.676494477581087,41.928111347247921],[-73.689092542386661,41.893634481840159],[-73.689092542386661,41.893634481840159],[-73.689092542386661,41.893634481840159],[-73.689092542386661,41.893634481840159]]}},
{"type":"Feature","properties":{},"geometry":{"type":"LineString","coordinates":[[-73.683809482952071,41.969821583807601],[-73.682183926202967,41.968612975512649],[-73.682183926202967,41.968612975512649],[-73.67730725595564,41.927506650443043],[-73.67730725595564,41.927506650443043]]}},
{"type":"Feature","properties":{},"geometry":{"type":"LineString","coordinates":[[-73.668773083022842,41.984927252681842],[-73.668773083022842,41.984927252681842],[-73.643576953411696,41.993384862155295],[-73.643576953411696,41.993384862155295]]}},
{"type":"Feature","properties":{},"geometry":{"type":"LineString","coordinates":[[-73.617568045426012,41.989760309975203],[-73.617568045426012,41.989760309975203],[-73.619193602175102,41.985833478872919],[-73.61838082380055,41.985229329512123],[-73.617161656238736,41.979187520590898],[-73.616755267051445,41.979187520590898],[-73.612284985991408,41.971634453254886],[-73.612284985991408,41.971634453254886],[-73.61106581842958,41.961965220008459],[-73.61106581842958,41.961965220008459],[-73.620006380549668,41.959245483743487],[-73.620006380549668,41.959245483743487],[-73.61838082380055,41.944435994321395],[-73.61838082380055,41.944435994321395]]}},
{"type":"Feature","properties":{},"geometry":{"type":"LineString","coordinates":[[-73.592371915814851,41.985833478872919],[-73.591559137440299,41.984323094721539],[-73.591965526627575,41.985833478872919],[-73.591965526627575,41.985833478872919],[-73.590746359065747,41.979187520590898],[-73.590746359065747,41.979187520590898],[-73.59399747256397,41.971936593146651],[-73.593591083376694,41.971332311929949],[-73.593591083376694,41.971332311929949],[-73.597654975249455,41.964080490181651],[-73.597654975249455,41.964080490181651],[-73.602125256309492,41.955316770870262],[-73.602125256309492,41.955316770870262],[-73.604563591433148,41.94504053063131],[-73.604563591433148,41.94504053063131],[-73.601718867122216,41.941715509991745],[-73.601718867122216,41.941715509991745],[-73.596842196874903,41.944435994321395],[-73.596842196874903,41.944435994321395]]}},
{"type":"Feature","properties":{},"geometry":{"type":"LineString","coordinates":[[-73.669179472210118,41.985229329512123],[-73.669179472210118,41.985229329512123],[-73.684215872139333,41.976770636501122],[-73.684215872139333,41.976770636501122],[-73.691124488323041,41.969821583807601],[-73.691124488323041,41.969821583807601],[-73.697626715319473,41.956525631396325],[-73.697626715319473,41.956525631396325],[-73.701284218004957,41.94322690450516],[-73.701284218004957,41.94322690450516],[-73.705348109877718,41.928716038321014],[-73.705348109877718,41.928716038321014],[-73.714288671997807,41.911782521701539],[-73.714288671997807,41.911782521701539],[-73.722010066556066,41.899381919206554],[-73.722010066556066,41.899381919206554],[-73.730544239488864,41.884255973647797],[-73.730544239488864,41.884255973647797],[-73.73664007729802,41.872152638314645],[-73.73664007729802,41.872152638314645],[-73.744361471856266,41.857625610182616],[-73.744361471856266,41.857625610182616],[-73.75574036910001,41.845214493268259],[-73.75574036910001,41.845214493268259],[-73.780123720336604,41.810995780427504],[-73.780123720336604,41.810995780427504],[-73.793534563516715,41.792516130508865],[-73.793940952703991,41.791910150116848],[-73.808570963445945,41.775849582342978],[-73.808570963445945,41.775849582342978],[-73.822388195813346,41.757662952676249],[-73.822388195813346,41.757662952676249],[-73.822794585000622,41.749174094580539],[-73.823200974187898,41.748870900313534],[-73.841082098428075,41.72612724934217],[-73.841082098428075,41.72612724934217],[-73.861170770193695,41.704208194183167],[-73.861170770193695,41.704208194183167],[-73.872928333679198,41.680149499428992],[-73.872928333679198,41.680149499428992]]}},
{"type":"Feature","properties":{},"geometry":{"type":"LineString","coordinates":[[-73.812502151159251,41.998845918109687],[-73.812502151159251,41.998845918109687],[-73.840720573999789,41.949055863726215],[-73.840720573999789,41.949055863726215]]}},
{"type":"Feature","properties":{},"geometry":{"type":"LineString","coordinates":[[-73.503475767051185,41.886185876666964],[-73.503475767051185,41.886185876666964],[-73.516748986792251,41.863405199914496],[-73.516748986792251,41.863405199914496],[-73.529551524982224,41.835987533462649],[-73.529551524982224,41.835987533462649],[-73.534729022044345,41.825115385100887],[-73.534729022044345,41.825115385100887]]}},
{"type":"Feature","properties":{},"geometry":{"type":"LineString","coordinates":[[-73.534860362322803,41.82540099468126],[-73.534860362322803,41.82540099468126],[-73.557344849290914,41.796073031348797],[-73.557344849290914,41.796073031348797],[-73.573271360893344,41.773020212303678],[-73.573271360893344,41.773020212303678],[-73.584045177565571,41.755899879696308],[-73.584045177565571,41.755899879696308],[-73.596692701485125,41.728637682046397],[-73.596692701485125,41.727938499143086],[-73.606061237721846,41.706260054971253],[-73.606061237721846,41.706609765315136],[-73.606998091345517,41.696117627556426],[-73.606998091345517,41.695767860147974],[-73.613556066711226,41.684924127052909],[-73.613556066711226,41.684924127052909],[-73.614961347146732,41.675478096035221],[-73.614961347146732,41.675478096035221],[-73.622924602947933,41.659381664653743],[-73.622456176136112,41.659731629867181],[-73.629482578313642,41.641880979206597],[-73.629951005125477,41.640480718983525],[-73.632761565996489,41.617372032549689],[-73.632761565996489,41.617372032549689],[-73.634635273243831,41.601611360936737],[-73.634635273243831,41.601611360936737],[-73.638382687738527,41.588299350872873],[-73.638382687738527,41.588299350872873],[-73.646345943539728,41.569027105427665],[-73.646345943539728,41.569027105427665],[-73.650561784846261,41.556058904580858],[-73.650561784846261,41.556058904580858],[-73.650561784846261,41.548697416644522],[-73.650561784846261,41.548697416644522],[-73.645877516727893,41.542737502877209],[-73.645877516727893,41.542737502877209],[-73.640256394985869,41.535374497998802],[-73.640256394985869,41.535374497998802],[-73.635103700055666,41.531517351368969],[-73.635103700055666,41.531517351368969],[-73.636508980491172,41.520295253425644],[-73.636508980491172,41.520295253425644]]}},
{"type":"Feature","properties":{},"geometry":{"type":"LineString","coordinates":[[-73.635103700055666,41.672679005754077],[-73.635103700055666,41.672329110910205],[-73.638851114550363,41.655881907919174],[-73.638851114550363,41.655881907919174],[-73.642598529045031,41.640830786891819],[-73.642598529045031,41.640830786891819],[-73.641193248609525,41.627526869517617],[-73.641193248609525,41.627526869517617],[-73.640724821797704,41.612819345140203],[-73.640724821797704,41.612819345140203],[-73.637914260926678,41.600560512594036],[-73.637914260926678,41.600560512594036],[-73.628077297878136,41.580591142829896],[-73.628077297878136,41.580591142829896]]}},
{"type":"Feature","properties":{},"geometry":{"type":"LineString","coordinates":[[-73.529707667392614,41.742619742100217],[-73.53017609420445,41.742619742100217],[-73.540481484064841,41.72374324192608],[-73.540481484064841,41.72374324192608],[-73.547507886242371,41.705210912526461],[-73.547507886242371,41.705210912526461],[-73.55172372754889,41.687023056758058],[-73.55172372754889,41.687023056758058],[-73.556407995667257,41.670579608162001],[-73.556407995667257,41.670579608162001],[-73.56156069059746,41.653781962591779],[-73.56156069059746,41.653781962591779],[-73.56858709277499,41.634179171449311],[-73.56858709277499,41.634179171449311],[-73.579360909447217,41.620173526614529],[-73.579360909447217,41.620173526614529],[-73.589666299307595,41.608616579234742],[-73.58919787249576,41.608616579234742]]}},
{"type":"Feature","properties":{},"geometry":{"type":"LineString","coordinates":[[-73.51565486303754,41.776513596448055],[-73.51565486303754,41.776513596448055],[-73.527365533333437,41.635229472158827],[-73.527365533333437,41.635229472158827]]}},
{"type":"Feature","properties":{},"geometry":{"type":"LineString","coordinates":[[-73.515186436225704,41.724792081911886],[-73.515186436225704,41.72374324192608],[-73.551255300737054,41.668830057865883],[-73.551255300737054,41.668830057865883]]}},
{"type":"Feature","properties":{},"geometry":{"type":"LineString","coordinates":[[-73.529707667392614,41.718848428950146],[-73.529707667392614,41.716750537822804],[-73.53017609420445,41.704161752962015],[-73.53017609420445,41.704161752962015],[-73.527833960145259,41.69227008144793],[-73.527833960145259,41.69227008144793],[-73.52408654565059,41.687372871718445],[-73.52408654565059,41.687372871718445]]}},
{"type":"Feature","properties":{},"geometry":{"type":"LineString","coordinates":[[-73.509565314483666,41.808294647870191],[-73.510502168107351,41.806898009677809],[-73.525023399274247,41.791183732049532],[-73.525023399274247,41.790834482113972],[-73.540013057252992,41.768478528463099],[-73.540013057252992,41.76812915484895],[-73.544697325371359,41.744017780691209],[-73.544697325371359,41.744017780691209],[-73.544228898559524,41.728987270644502],[-73.544228898559524,41.72828809154592],[-73.543292044935853,41.716400882643619],[-73.543292044935853,41.716400882643619],[-73.541886764500347,41.702762846912336],[-73.541886764500347,41.702413115644489],[-73.539076203629335,41.690870916709414],[-73.539076203629335,41.690870916709414]]}},
{"type":"Feature","properties":{},"geometry":{"type":"LineString","coordinates":[[-73.646814370351564,41.612469125106067],[-73.647282797163399,41.611768679333423],[-73.67117256456703,41.591802777600037],[-73.67117256456703,41.591802777600037],[-73.689441210228622,41.5749845953749],[-73.689441210228622,41.5749845953749],[-73.708646709513886,41.5630690660577],[-73.708646709513886,41.5630690660577],[-73.728789062422834,41.556058904580858],[-73.728789062422834,41.556058904580858],[-73.725978501551808,41.549398546852231],[-73.725978501551808,41.549398546852231],[-73.73019434285834,41.56552244292471],[-73.73019434285834,41.56552244292471],[-73.729725916046505,41.56026509271701],[-73.729725916046505,41.56026509271701],[-73.749399842143617,41.544490475718924],[-73.749399842143617,41.544490475718924],[-73.75876837838031,41.534673215719067],[-73.75923680519216,41.534673215719067],[-73.770010621864387,41.524503768246362],[-73.770479048676222,41.524503768246362],[-73.780784438536614,41.515384973536584],[-73.780784438536614,41.515384973536584],[-73.794837242891674,41.50310764399363],[-73.794368816079853,41.50310764399363]]}},
{"type":"Feature","properties":{},"geometry":{"type":"LineString","coordinates":[[-73.747057708084427,41.580591142829896],[-73.747526134896262,41.580240747872907],[-73.78172129216027,41.527659974740452],[-73.78172129216027,41.527659974740452],[-73.799521511010028,41.502756828938423],[-73.799521511010028,41.502756828938423]]}},
{"type":"Feature","properties":{},"geometry":{"type":"LineString","coordinates":[[-73.791558255208827,41.522750253667397],[-73.792026682020662,41.520996691569813],[-73.824348132037329,41.500301070335873],[-73.824348132037329,41.500301070335873]]}},
{"type":"Feature","properties":{},"geometry":{"type":"LineString","coordinates":[[-73.818258583483484,41.546944557858595],[-73.81919543710714,41.545892819775752],[-73.827627119720177,41.52801065484703],[-73.827627119720177,41.52801065484703]]}},
{"type":"Feature","properties":{},"geometry":{"type":"LineString","coordinates":[[-73.829969253779367,41.522399545049353],[-73.829969253779367,41.522399545049353],[-73.834185095085886,41.501704372369346],[-73.834185095085886,41.501704372369346]]}},
{"type":"Feature","properties":{},"geometry":{"type":"LineString","coordinates":[[-73.895080580624551,41.492231493524436],[-73.895080580624551,41.492231493524436],[-73.825753412472849,41.555007314773839],[-73.825753412472849,41.555007314773839]]}},
{"type":"Feature","properties":{},"geometry":{"type":"LineString","coordinates":[[-73.823411278413673,41.55675995494714],[-73.823411278413673,41.55675995494714],[-73.813574315365116,41.562718576043821],[-73.813574315365116,41.562718576043821]]}},
{"type":"Feature","properties":{},"geometry":{"type":"LineString","coordinates":[[-73.812637461741431,41.564120524692882],[-73.811700608117761,41.564120524692882],[-73.804205779128395,41.57077936538743],[-73.80373735231656,41.57077936538743]]}},
{"type":"Feature","properties":{},"geometry":{"type":"LineString","coordinates":[[-73.810763754494104,41.580591142829896],[-73.810763754494104,41.580591142829896],[-73.770010621864387,41.618772794794204],[-73.770010621864387,41.618772794794204]]}},
{"type":"Feature","properties":{},"geometry":{"type":"LineString","coordinates":[[-73.779379158101108,41.592503440129988],[-73.779379158101108,41.592503440129988],[-73.770010621864387,41.594955699093603],[-73.770010621864387,41.594955699093603]]}},
{"type":"Feature","properties":{},"geometry":{"type":"LineString","coordinates":[[-73.792963535644333,41.585496472599537],[-73.792963535644333,41.585496472599537],[-73.785000279843132,41.58970074437913],[-73.785000279843132,41.58970074437913]]}},
{"type":"Feature","properties":{},"geometry":{"type":"LineString","coordinates":[[-73.811700608117761,41.575685440423307],[-73.811700608117761,41.575685440423307],[-73.797647803762686,41.583394234042046],[-73.797647803762686,41.583394234042046]]}},
{"type":"Feature","properties":{},"geometry":{"type":"LineString","coordinates":[[-73.837932509580568,41.558863060421473],[-73.837932509580568,41.558863060421473],[-73.81919543710714,41.571480256063452],[-73.81919543710714,41.571480256063452]]}},
{"type":"Feature","properties":{},"geometry":{"type":"LineString","coordinates":[[-73.846832619005454,41.550099669456095],[-73.846832619005454,41.550099669456095],[-73.840743070451595,41.5557083765462],[-73.83980621682791,41.556409430714517]]}},
{"type":"Feature","properties":{},"geometry":{"type":"LineString","coordinates":[[-73.862290703796035,41.536075772675154],[-73.862290703796035,41.536075772675154],[-73.851516887123807,41.546944557858595],[-73.851516887123807,41.546944557858595]]}},
{"type":"Feature","properties":{},"geometry":{"type":"LineString","coordinates":[[-73.881496203081298,41.515384973536584],[-73.881496203081298,41.515384973536584],[-73.867443398726238,41.530114695569821],[-73.867443398726238,41.530114695569821]]}},
{"type":"Feature","properties":{},"geometry":{"type":"LineString","coordinates":[[-73.908664958167776,41.491880619552511],[-73.908664958167776,41.491880619552511],[-73.892738446565374,41.507317276409566],[-73.892738446565374,41.507317276409566]]}},
{"type":"Feature","properties":{},"geometry":{"type":"LineString","coordinates":[[-73.884775190764159,41.51713868769135],[-73.883838337140489,41.517489424820219],[-73.874001374091932,41.528712009357804],[-73.874001374091932,41.528712009357804]]}},
{"type":"Feature","properties":{},"geometry":{"type":"LineString","coordinates":[[-73.979865833566819,41.461347309220059],[-73.980802687190504,41.470824703436698],[-73.980802687190504,41.470824703436698],[-73.964407748776239,41.490827986233775],[-73.964407748776239,41.490827986233775],[-73.947544383550152,41.507668066756949],[-73.947544383550152,41.507668066756949],[-73.918970348028168,41.531166690270396],[-73.918970348028168,41.531166690270396],[-73.898359568307399,41.544841064584517],[-73.898359568307399,41.544841064584517],[-73.870722386409071,41.572531577818943],[-73.870722386409071,41.572531577818943],[-73.857606435677667,41.580591142829896],[-73.857606435677667,41.580591142829896]]}},
{"type":"Feature","properties":{},"geometry":{"type":"LineString","coordinates":[[-73.853390594371163,41.583043854294814],[-73.853390594371163,41.583043854294814],[-73.802800498692889,41.633829067409536],[-73.802800498692889,41.633829067409536],[-73.763452646498678,41.695767860147974],[-73.763452646498678,41.695767860147974],[-73.745184000837085,41.739474043976358],[-73.745184000837085,41.739474043976358],[-73.735347037788529,41.78873894254118],[-73.735347037788529,41.78873894254118],[-73.725041647928151,41.833079908996808],[-73.725041647928151,41.833079908996808],[-73.728789062422834,41.837966011243267],[-73.728789062422834,41.837966011243267],[-73.734878610976693,41.830985750987814],[-73.734878610976693,41.830985750987814],[-73.742841866777908,41.819117561492014],[-73.742841866777908,41.819117561492014],[-73.75174197620278,41.810389548069864],[-73.75174197620278,41.810389548069864],[-73.752210403014629,41.824004729480691],[-73.752210403014629,41.824004729480691],[-73.747994561708097,41.834824988334525],[-73.747994561708097,41.8351739984926],[-73.742373439966073,41.847388155016233],[-73.742373439966073,41.847388155016233],[-73.741905013154238,41.854715529826507],[-73.741905013154238,41.854715529826507],[-73.736752318224035,41.859599980058775],[-73.736752318224035,41.859599980058775],[-73.731599623293846,41.856460019162732],[-73.731599623293846,41.856460019162732],[-73.729725916046505,41.859599980058775],[-73.729725916046505,41.859599980058775],[-73.733473330541187,41.869367761352756],[-73.733473330541187,41.869367761352756],[-73.727383781987314,41.874251092400499],[-73.726915355175493,41.874251092400499],[-73.718952099374278,41.873553496520593],[-73.717546818938771,41.872855893026916],[-73.714736258067759,41.869018937716554],[-73.714736258067759,41.869018937716554],[-73.717546818938771,41.862739786784331],[-73.717546818938771,41.862739786784331],[-73.72410479430448,41.857157801574019],[-73.72410479430448,41.857157801574019],[-73.724573221116302,41.85227316481712],[-73.724573221116302,41.85017963486662],[-73.722699513868974,41.848086036398378],[-73.722699513868974,41.848086036398378],[-73.706304575454723,41.858553343556721],[-73.706304575454723,41.858553343556721],[-73.696467612406167,41.867623624137622],[-73.696467612406167,41.867623624137622],[-73.675388405873548,41.878087733643085],[-73.675388405873548,41.878087733643085],[-73.66976728413151,41.871809473510631],[-73.66976728413151,41.871809473510631],[-73.660398747894803,41.86971658308557],[-73.660398747894803,41.86971658308557],[-73.653840772529108,41.86587943933754],[-73.652435492093602,41.865181752093797],[-73.643066955856881,41.860297728210114],[-73.643066955856881,41.860297728210114],[-73.636040553679351,41.85890222429407],[-73.636040553679351,41.85890222429407],[-73.626672017442615,41.852622079814061],[-73.626672017442615,41.852622079814061],[-73.623861456571603,41.845643418254028],[-73.623861456571603,41.845643418254028],[-73.618240334829594,41.84180482989278],[-73.618240334829594,41.841455855895184],[-73.621050895700591,41.833079908996808],[-73.621050895700591,41.833079908996808],[-73.62620359063078,41.82575005622369],[-73.62620359063078,41.82575005622369],[-73.632761565996489,41.817372053958358],[-73.632761565996489,41.817372053958358],[-73.633229992808339,41.810389548069864],[-73.633229992808339,41.810389548069864]]}},
{"type":"Feature","properties":{},"geometry":{"type":"LineString","coordinates":[[-73.666019869636841,41.885760325163744],[-73.666019869636841,41.885760325163744],[-73.67819896674456,41.863786354765764],[-73.67819896674456,41.863786354765764],[-73.687099076169446,41.8494817763236],[-73.687567502981267,41.8494817763236],[-73.697404466029838,41.8351739984926],[-73.697404466029838,41.8351739984926],[-73.709115136325735,41.824702865887147],[-73.709115136325735,41.824702865887147],[-73.718015245750607,41.808643802660882],[-73.718015245750607,41.808643802660882],[-73.723167940680796,41.793977663031868],[-73.723167940680796,41.793977663031868],[-73.726446928363657,41.774766928159757],[-73.726446928363657,41.774766928159757],[-73.729725916046505,41.758695348069836],[-73.729725916046505,41.758695348069836],[-73.731599623293846,41.747163256225676],[-73.731599623293846,41.747163256225676],[-73.739094452283226,41.72828809154592],[-73.739094452283226,41.727938499143086],[-73.739094452283226,41.727938499143086]]}},
{"type":"Feature","properties":{},"geometry":{"type":"LineString","coordinates":[[-73.742373439966073,41.80619967916391],[-73.742373439966073,41.802707912418079],[-73.74471557402525,41.787341878102986],[-73.74471557402525,41.787341878102986],[-73.752210403014629,41.768827900174585],[-73.752210403014629,41.768827900174585],[-73.76017365881583,41.745066289658439],[-73.76017365881583,41.745066289658439],[-73.764857926934184,41.73143433756492],[-73.764857926934184,41.731084762283416],[-73.766731634181525,41.716400882643619],[-73.766731634181525,41.716400882643619],[-73.764389500122363,41.693319435029927],[-73.764389500122363,41.693319435029927]]}},
{"type":"Feature","properties":{},"geometry":{"type":"LineString","coordinates":[[-73.882545631686725,41.545215122767857],[-73.882545631686725,41.545215122767857],[-73.852791724119896,41.562958132632794],[-73.852791724119896,41.562958132632794],[-73.829081579027559,41.580000750352895],[-73.829081579027559,41.580000750352895],[-73.806301243546713,41.602601365982267],[-73.806301243546713,41.602601365982267]]}},
{"type":"Feature","properties":{},"geometry":{"type":"LineString","coordinates":[[-73.962974163078314,41.490912155729795],[-73.962974163078314,41.490912155729795],[-73.942983256431845,41.498573026059333],[-73.942983256431845,41.498573026059333]]}},
{"type":"Feature","properties":{},"geometry":{"type":"LineString","coordinates":[[-73.938799113180266,41.502054940315098],[-73.938799113180266,41.502054940315098],[-73.927176493036967,41.504492168904122],[-73.927176493036967,41.504492168904122],[-73.916483682505131,41.512151432972026],[-73.916483682505131,41.512151432972026],[-73.903931252750382,41.518765522724848],[-73.903931252750382,41.518765522724848],[-73.900676919110253,41.520854042229857],[-73.900676919110253,41.520854042229857]]}},
{"type":"Feature","properties":{},"geometry":{"type":"LineString","coordinates":[[-73.715728209407246,41.998464451216158],[-73.714895452015284,41.998309732458004],[-73.70760882483566,41.995679456016624],[-73.707400635487687,41.995060551643455],[-73.709066150271596,41.990882789702894],[-73.709066150271596,41.990882789702894],[-73.714270883971324,41.989490141452436],[-73.714270883971324,41.989644881651543],[-73.719059238975078,41.992275407484989],[-73.719475617671051,41.992275407484989],[-73.724888540718752,41.992430140913342],[-73.725096730066753,41.992894338941468],[-73.725721298110727,41.995834181169521],[-73.725721298110727,41.995834181169521],[-73.721973889846922,41.999238039364478],[-73.721557511150948,41.999083322487138],[-73.713646315927363,41.998309732458004],[-73.713646315927363,41.998309732458004]]}},
{"type":"Feature","properties":{},"geometry":{"type":"LineString","coordinates":[[-73.695325653304295,41.999856903112175],[-73.695117463956322,41.999083322487138],[-73.693868327868387,41.993667994798564],[-73.693451949172399,41.993513264379452],[-73.689704540908593,41.989954360921288],[-73.689704540908593,41.989954360921288],[-73.68449980720888,41.991811204943019],[-73.684291617860879,41.991811204943019],[-73.675547665245347,41.989644881651543],[-73.675547665245347,41.989644881651543],[-73.670134742197618,41.991037526516628],[-73.670134742197618,41.991037526516628],[-73.671383878285553,41.994596369413912],[-73.671383878285553,41.994596369413912],[-73.679086884161151,41.994905824609759],[-73.679086884161151,41.994905824609759],[-73.68512437525284,41.999392755865649],[-73.68512437525284,41.999392755865649]]}}
]
}
